[Satellite]
VERSION=1.1
NAME=RAINCUBE
NICKNAME=RAINCUBE
TLE1=1 43548U 98067NW  19317.55414823  .00017130  00000-0  17545-3 0  9994
TLE2=2 43548  51.6357 315.7721 0005170 350.5943   9.4954 15.65088980 76207
STATUS=0
